LEMUR-2-VALHALLA        
1 58900U 24022B   26197.83234560  .00009575  00000+0  23769-3 0  9993
2 58900  97.4076  48.1944 0009043  18.4869 341.6704 15.40519232136837
LEMUR-2-CAEL            
1 58903U 24022E   26197.55690600  .00010623  00000+0  25199-3 0  9991
2 58903  97.4056  48.9042 0006977   4.7452 355.3860 15.41885748136861
LEMUR-2-JOHNNYTRUONG    
1 59146U 24043BA  26197.37058727  .00023614  00000+0  26522-3 0  9997
2 59146  97.5396 350.9332 0004017  90.4293 269.7425 15.62625044132590
LEMUR-2-TOMATOKECHUP    
1 60471U 24149D   26197.48204929  .00005784  00000+0  16419-3 0  9998
2 60471  97.3796 279.6140 0003348 120.3105 239.8471 15.36597838106668
LEMUR-2-STELLA          
1 60533U 24149BT  26197.66164544  .00005887  00000+0  34300-3 0  9998
2 60533  97.6734 280.2569 0001221 120.7712 239.3638 15.12387935104950
LEMUR-2-MARHISYAM       
1 60536U 24149BW  26197.18981359  .00005441  00000+0  32263-3 0  9991
2 60536  97.6878 280.2601 0002338  68.0137 292.1341 15.11787785104868
LEMUR-2-AHMED-ASRAR     
1 60576U 24149DN  26197.19531720  .00006078  00000+0  34500-3 0  9992
2 60576  97.7004 282.4729 0001294 203.7256 156.3916 15.13317903104951
LEMUR-2-LLOYD           
1 60577U 24149DP  26197.67300762  .00004783  00000+0  30020-3 0  9990
2 60577  97.6743 278.8274 0004662  68.8848 291.2878 15.09766175104842
LEMUR-2-SQUIRRELCOMM    
1 60578U 24149DQ  26197.66387841  .00002407  00000+0  16300-3 0  9999
2 60578  97.6706 278.4872 0004035 320.8938  39.1997 15.07453973104845
LEMUR-2-SIERRINI        
1 60579U 24149DR  26197.68227596  .00005741  00000+0  34249-3 0  9998
2 60579  97.6840 280.4157 0006432  87.1298 273.0668 15.11530869104916
LEMUR-2-WILSON          
1 62694U 25009CP  26197.67405625  .00000769  00000+0  74985-4 0  9991
2 62694  97.7020 275.6219 0001909 316.5639  43.5431 14.95278920 81767
LEMUR-2-STAR-FOX        
1 62696U 25009CR  26197.65824148  .00003671  00000+0  27841-3 0  9999
2 62696  97.6905 279.0553 0002048  36.9264 323.2101 15.02851773 81989
LEMUR-2-ARIANNA         
1 62699U 25009CU  26197.65670647  .00003802  00000+0  28821-3 0  9990
2 62699  97.6846 278.8049 0002398  44.9756 315.1663 15.02853991 81983
LEMUR-2-ALISIA          
1 62706U 25009DB  26197.16278189  .00003920  00000+0  29439-3 0  9997
2 62706  97.6971 279.1419 0004420 126.4435 233.7199 15.03183137104517
LEMUR-2-ROUNDTRIPPER    
1 62711U 25009DG  26197.83249257  .00004463  00000+0  32528-3 0  9997
2 62711  97.7250 280.4761 0004504  60.8896 299.2781 15.04247077 82080
LEMUR-2-MYNAMEISJEFF    
1 62712U 25009DH  26197.83098971  .00004487  00000+0  32714-3 0  9996
2 62712  97.7299 280.8736 0004219  93.9545 266.2163 15.04238210 82088
