{"fetched_at":"2026-07-17T06:37:56.553Z","source":"https://celestrak.org/NORAD/elements/gp.php?GROUP=spire&FORMAT=JSON","constellation":"spire","records":[{"OBJECT_NAME":"LEMUR-2-VALHALLA","OBJECT_ID":"2024-022B","EPOCH":"2026-07-16T19:58:34.659840","CLASSIFICATION_TYPE":"U","MEAN_MOTION":15.40519232,"ECCENTRICITY":0.0009043,"INCLINATION":97.4076,"RA_OF_ASC_NODE":48.1944,"ARG_OF_PERICENTER":18.4869,"MEAN_ANOMALY":341.6704,"EPHEMERIS_TYPE":0,"NORAD_CAT_ID":58900,"ELEMENT_SET_NO":999,"REV_AT_EPOCH":13683,"BSTAR":0.00023769,"MEAN_MOTION_DOT":0.00009575,"MEAN_MOTION_DDOT":0},{"OBJECT_NAME":"LEMUR-2-CAEL","OBJECT_ID":"2024-022E","EPOCH":"2026-07-16T13:21:56.678400","CLASSIFICATION_TYPE":"U","MEAN_MOTION":15.41885748,"ECCENTRICITY":0.0006977,"INCLINATION":97.4056,"RA_OF_ASC_NODE":48.9042,"ARG_OF_PERICENTER":4.7452,"MEAN_ANOMALY":355.386,"EPHEMERIS_TYPE":0,"NORAD_CAT_ID":58903,"ELEMENT_SET_NO":999,"REV_AT_EPOCH":13686,"BSTAR":0.00025199,"MEAN_MOTION_DOT":0.00010623,"MEAN_MOTION_DDOT":0},{"OBJECT_NAME":"LEMUR-2-JOHNNYTRUONG","OBJECT_ID":"2024-043BA","EPOCH":"2026-07-16T08:53:38.740128","CLASSIFICATION_TYPE":"U","MEAN_MOTION":15.62625044,"ECCENTRICITY":0.0004017,"INCLINATION":97.5396,"RA_OF_ASC_NODE":350.9332,"ARG_OF_PERICENTER":90.4293,"MEAN_ANOMALY":269.7425,"EPHEMERIS_TYPE":0,"NORAD_CAT_ID":59146,"ELEMENT_SET_NO":999,"REV_AT_EPOCH":13259,"BSTAR":0.00026522,"MEAN_MOTION_DOT":0.00023614,"MEAN_MOTION_DDOT":0},{"OBJECT_NAME":"LEMUR-2-TOMATOKECHUP","OBJECT_ID":"2024-149D","EPOCH":"2026-07-16T11:34:09.058656","CLASSIFICATION_TYPE":"U","MEAN_MOTION":15.36597838,"ECCENTRICITY":0.0003348,"INCLINATION":97.3796,"RA_OF_ASC_NODE":279.614,"ARG_OF_PERICENTER":120.3105,"MEAN_ANOMALY":239.8471,"EPHEMERIS_TYPE":0,"NORAD_CAT_ID":60471,"ELEMENT_SET_NO":999,"REV_AT_EPOCH":10666,"BSTAR":0.00016419,"MEAN_MOTION_DOT":0.00005784,"MEAN_MOTION_DDOT":0},{"OBJECT_NAME":"LEMUR-2-STELLA","OBJECT_ID":"2024-149BT","EPOCH":"2026-07-16T15:52:46.166016","CLASSIFICATION_TYPE":"U","MEAN_MOTION":15.12387935,"ECCENTRICITY":0.0001221,"INCLINATION":97.6734,"RA_OF_ASC_NODE":280.2569,"ARG_OF_PERICENTER":120.7712,"MEAN_ANOMALY":239.3638,"EPHEMERIS_TYPE":0,"NORAD_CAT_ID":60533,"ELEMENT_SET_NO":999,"REV_AT_EPOCH":10495,"BSTAR":0.000343,"MEAN_MOTION_DOT":0.00005887,"MEAN_MOTION_DDOT":0},{"OBJECT_NAME":"LEMUR-2-MARHISYAM","OBJECT_ID":"2024-149BW","EPOCH":"2026-07-16T04:33:19.894176","CLASSIFICATION_TYPE":"U","MEAN_MOTION":15.11787785,"ECCENTRICITY":0.0002338,"INCLINATION":97.6878,"RA_OF_ASC_NODE":280.2601,"ARG_OF_PERICENTER":68.0137,"MEAN_ANOMALY":292.1341,"EPHEMERIS_TYPE":0,"NORAD_CAT_ID":60536,"ELEMENT_SET_NO":999,"REV_AT_EPOCH":10486,"BSTAR":0.00032263,"MEAN_MOTION_DOT":0.00005441,"MEAN_MOTION_DDOT":0},{"OBJECT_NAME":"LEMUR-2-AHMED-ASRAR","OBJECT_ID":"2024-149DN","EPOCH":"2026-07-16T04:41:15.406080","CLASSIFICATION_TYPE":"U","MEAN_MOTION":15.13317903,"ECCENTRICITY":0.0001294,"INCLINATION":97.7004,"RA_OF_ASC_NODE":282.4729,"ARG_OF_PERICENTER":203.7256,"MEAN_ANOMALY":156.3916,"EPHEMERIS_TYPE":0,"NORAD_CAT_ID":60576,"ELEMENT_SET_NO":999,"REV_AT_EPOCH":10495,"BSTAR":0.000345,"MEAN_MOTION_DOT":0.00006078,"MEAN_MOTION_DDOT":0},{"OBJECT_NAME":"LEMUR-2-LLOYD","OBJECT_ID":"2024-149DP","EPOCH":"2026-07-16T16:09:07.858368","CLASSIFICATION_TYPE":"U","MEAN_MOTION":15.09766175,"ECCENTRICITY":0.0004662,"INCLINATION":97.6743,"RA_OF_ASC_NODE":278.8274,"ARG_OF_PERICENTER":68.8848,"MEAN_ANOMALY":291.2878,"EPHEMERIS_TYPE":0,"NORAD_CAT_ID":60577,"ELEMENT_SET_NO":999,"REV_AT_EPOCH":10484,"BSTAR":0.0003002,"MEAN_MOTION_DOT":0.00004783,"MEAN_MOTION_DDOT":0},{"OBJECT_NAME":"LEMUR-2-SQUIRRELCOMM","OBJECT_ID":"2024-149DQ","EPOCH":"2026-07-16T15:55:59.094624","CLASSIFICATION_TYPE":"U","MEAN_MOTION":15.07453973,"ECCENTRICITY":0.0004035,"INCLINATION":97.6706,"RA_OF_ASC_NODE":278.4872,"ARG_OF_PERICENTER":320.8938,"MEAN_ANOMALY":39.1997,"EPHEMERIS_TYPE":0,"NORAD_CAT_ID":60578,"ELEMENT_SET_NO":999,"REV_AT_EPOCH":10484,"BSTAR":0.000163,"MEAN_MOTION_DOT":0.00002407,"MEAN_MOTION_DDOT":0},{"OBJECT_NAME":"LEMUR-2-SIERRINI","OBJECT_ID":"2024-149DR","EPOCH":"2026-07-16T16:22:28.642944","CLASSIFICATION_TYPE":"U","MEAN_MOTION":15.11530869,"ECCENTRICITY":0.0006432,"INCLINATION":97.684,"RA_OF_ASC_NODE":280.4157,"ARG_OF_PERICENTER":87.1298,"MEAN_ANOMALY":273.0668,"EPHEMERIS_TYPE":0,"NORAD_CAT_ID":60579,"ELEMENT_SET_NO":999,"REV_AT_EPOCH":10491,"BSTAR":0.00034249,"MEAN_MOTION_DOT":0.00005741,"MEAN_MOTION_DDOT":0},{"OBJECT_NAME":"LEMUR-2-WILSON","OBJECT_ID":"2025-009CP","EPOCH":"2026-07-16T16:10:38.460000","CLASSIFICATION_TYPE":"U","MEAN_MOTION":14.9527892,"ECCENTRICITY":0.0001909,"INCLINATION":97.702,"RA_OF_ASC_NODE":275.6219,"ARG_OF_PERICENTER":316.5639,"MEAN_ANOMALY":43.5431,"EPHEMERIS_TYPE":0,"NORAD_CAT_ID":62694,"ELEMENT_SET_NO":999,"REV_AT_EPOCH":8176,"BSTAR":0.000074985,"MEAN_MOTION_DOT":0.00000769,"MEAN_MOTION_DDOT":0},{"OBJECT_NAME":"LEMUR-2-STAR-FOX","OBJECT_ID":"2025-009CR","EPOCH":"2026-07-16T15:47:52.063872","CLASSIFICATION_TYPE":"U","MEAN_MOTION":15.02851773,"ECCENTRICITY":0.0002048,"INCLINATION":97.6905,"RA_OF_ASC_NODE":279.0553,"ARG_OF_PERICENTER":36.9264,"MEAN_ANOMALY":323.2101,"EPHEMERIS_TYPE":0,"NORAD_CAT_ID":62696,"ELEMENT_SET_NO":999,"REV_AT_EPOCH":8198,"BSTAR":0.00027841,"MEAN_MOTION_DOT":0.00003671,"MEAN_MOTION_DDOT":0},{"OBJECT_NAME":"LEMUR-2-ARIANNA","OBJECT_ID":"2025-009CU","EPOCH":"2026-07-16T15:45:39.439008","CLASSIFICATION_TYPE":"U","MEAN_MOTION":15.02853991,"ECCENTRICITY":0.0002398,"INCLINATION":97.6846,"RA_OF_ASC_NODE":278.8049,"ARG_OF_PERICENTER":44.9756,"MEAN_ANOMALY":315.1663,"EPHEMERIS_TYPE":0,"NORAD_CAT_ID":62699,"ELEMENT_SET_NO":999,"REV_AT_EPOCH":8198,"BSTAR":0.00028821,"MEAN_MOTION_DOT":0.00003802,"MEAN_MOTION_DDOT":0},{"OBJECT_NAME":"LEMUR-2-ALISIA","OBJECT_ID":"2025-009DB","EPOCH":"2026-07-16T03:54:24.355296","CLASSIFICATION_TYPE":"U","MEAN_MOTION":15.03183137,"ECCENTRICITY":0.00044207,"INCLINATION":97.6971,"RA_OF_ASC_NODE":279.1419,"ARG_OF_PERICENTER":126.4435,"MEAN_ANOMALY":233.7199,"EPHEMERIS_TYPE":0,"NORAD_CAT_ID":62706,"ELEMENT_SET_NO":999,"REV_AT_EPOCH":10451,"BSTAR":0.0002943943,"MEAN_MOTION_DOT":0.0000392,"MEAN_MOTION_DDOT":0},{"OBJECT_NAME":"LEMUR-2-ROUNDTRIPPER","OBJECT_ID":"2025-009DG","EPOCH":"2026-07-16T19:58:47.358048","CLASSIFICATION_TYPE":"U","MEAN_MOTION":15.04247077,"ECCENTRICITY":0.0004504,"INCLINATION":97.725,"RA_OF_ASC_NODE":280.4761,"ARG_OF_PERICENTER":60.8896,"MEAN_ANOMALY":299.2781,"EPHEMERIS_TYPE":0,"NORAD_CAT_ID":62711,"ELEMENT_SET_NO":999,"REV_AT_EPOCH":8208,"BSTAR":0.00032528,"MEAN_MOTION_DOT":0.00004463,"MEAN_MOTION_DDOT":0},{"OBJECT_NAME":"LEMUR-2-MYNAMEISJEFF","OBJECT_ID":"2025-009DH","EPOCH":"2026-07-16T19:56:37.510944","CLASSIFICATION_TYPE":"U","MEAN_MOTION":15.0423821,"ECCENTRICITY":0.0004219,"INCLINATION":97.7299,"RA_OF_ASC_NODE":280.8736,"ARG_OF_PERICENTER":93.9545,"MEAN_ANOMALY":266.2163,"EPHEMERIS_TYPE":0,"NORAD_CAT_ID":62712,"ELEMENT_SET_NO":999,"REV_AT_EPOCH":8208,"BSTAR":0.00032714,"MEAN_MOTION_DOT":0.00004487,"MEAN_MOTION_DDOT":0}]}
